start=new Date('2022-02-02T00:00:00.000Z').valueOf();
sats=[{"LAUNCH_DATE":"2020-08-18","TLE_LINE1":"1 46118U 20057B   22032.84039286 -.00000123  00000-0  10630-4 0  9994","INCLINATION":"53.0531","NORAD_CAT_ID":"46118","EPOCH":"2022-02-01T20:10:09.943104","ELEMENT_SET_NO":"999","GP_ID":"195121285","CENTER_NAME":"EARTH","RA_OF_ASC_NODE":"196.2359","RCS_SIZE":"LARGE","MEAN_MOTION":"15.06392426","TIME_SYSTEM":"UTC","APOAPSIS":"548.525","BSTAR":"0.00001063000000","REV_AT_EPOCH":"8173","OBJECT_TYPE":"PAYLOAD","ECCENTRICITY":"0.00018600","CLASSIFICATION_TYPE":"U","EPHEMERIS_TYPE":"0","MEAN_ELEMENT_THEORY":"SGP4","FILE":"3289675","COUNTRY_CODE":"US","PERIOD":"95.593","MEAN_MOTION_DDOT":"0.0000000000000","MEAN_MOTION_DOT":"-0.00000123","ARG_OF_PERICENTER":"85.2929","OBJECT_ID":"2020-057B","DECAY_DATE":null,"TLE_LINE2":"2 46118  53.0531 196.2359 0001860  85.2929 274.8272 15.06392426 81733","MEAN_ANOMALY":"274.8272","SEMIMAJOR_AXIS":"6925.372","REF_FRAME":"TEME","OBJECT_NAME":"STARLINK-1588","PERIAPSIS":"545.949","SITE":"AFETR"},{"INCLINATION":"53.0547","NORAD_CAT_ID":"46119","EPOCH":"2022-02-01T11:56:32.065440","LAUNCH_DATE":"2020-08-18","TLE_LINE1":"1 46119U 20057C   22032.49759335  .00001557  00000-0  12340-3 0  9990","BSTAR":"0.00012340000000","REV_AT_EPOCH":"8106","ELEMENT_SET_NO":"999","RA_OF_ASC_NODE":"197.7853","GP_ID":"195095580","CENTER_NAME":"EARTH","MEAN_MOTION":"15.06399484","RCS_SIZE":"LARGE","TIME_SYSTEM":"UTC","APOAPSIS":"548.474","COUNTRY_CODE":"US","FILE":"3289416","PERIOD":"95.592","MEAN_MOTION_DDOT":"0.0000000000000","MEAN_MOTION_DOT":"0.00001557","ARG_OF_PERICENTER":"82.2517","OBJECT_ID":"2020-057C","TLE_LINE2":"2 46119  53.0547 197.7853 0001818  82.2517 277.8679 15.06399484 81060","DECAY_DATE":null,"ECCENTRICITY":"0.00018180","OBJECT_TYPE":"PAYLOAD","CLASSIFICATION_TYPE":"U","EPHEMERIS_TYPE":"0","MEAN_ELEMENT_THEORY":"SGP4","PERIAPSIS":"545.956","SITE":"AFETR","MEAN_ANOMALY":"277.8679","SEMIMAJOR_AXIS":"6925.350","REF_FRAME":"TEME","OBJECT_NAME":"STARLINK-1593"},{"FILE":"3289675","COUNTRY_CODE":"US","MEAN_MOTION_DOT":"0.00001901","PERIOD":"95.592","MEAN_MOTION_DDOT":"0.0000000000000","ARG_OF_PERICENTER":"81.3363","OBJECT_ID":"2020-057D","DECAY_DATE":null,"TLE_LINE2":"2 46120  53.0540 196.3543 0001906  81.3363 278.7841 15.06402832 81730","OBJECT_TYPE":"PAYLOAD","ECCENTRICITY":"0.00019060","EPHEMERIS_TYPE":"0","CLASSIFICATION_TYPE":"U","MEAN_ELEMENT_THEORY":"SGP4","PERIAPSIS":"545.885","SITE":"AFETR","MEAN_ANOMALY":"278.7841","SEMIMAJOR_AXIS":"6925.340","REF_FRAME":"TEME","OBJECT_NAME":"STARLINK-1601","INCLINATION":"53.0540","NORAD_CAT_ID":"46120","EPOCH":"2022-02-01T19:33:01.937664","LAUNCH_DATE":"2020-08-18","TLE_LINE1":"1 46120U 20057D   22032.81460576  .00001901  00000-0  14649-3 0  9991","BSTAR":"0.00014649000000","REV_AT_EPOCH":"8173","ELEMENT_SET_NO":"999","RA_OF_ASC_NODE":"196.3543","GP_ID":"195120284","CENTER_NAME":"EARTH","RCS_SIZE":"LARGE","MEAN_MOTION":"15.06402832","TIME_SYSTEM":"UTC","APOAPSIS":"548.525"},{"PERIAPSIS":"545.993","SITE":"AFETR","MEAN_ANOMALY":"276.3740","SEMIMAJOR_AXIS":"6925.315","REF_FRAME":"TEME","OBJECT_NAME":"STARLINK-1602","COUNTRY_CODE":"US","FILE":"3289675","PERIOD":"95.591","MEAN_MOTION_DOT":"0.00000726","MEAN_MOTION_DDOT":"0.0000000000000","ARG_OF_PERICENTER":"83.7444","OBJECT_ID":"2020-057E","TLE_LINE2":"2 46121  53.0528 176.4976 0001714  83.7444 276.3740 15.06411095 80720","DECAY_DATE":null,"OBJECT_TYPE":"PAYLOAD","ECCENTRICITY":"0.00017140","CLASSIFICATION_TYPE":"U","EPHEMERIS_TYPE":"0","MEAN_ELEMENT_THEORY":"SGP4","BSTAR":"0.00006763200000","REV_AT_EPOCH":"8072","ELEMENT_SET_NO":"999","GP_ID":"195120534","RA_OF_ASC_NODE":"176.4976","CENTER_NAME":"EARTH","RCS_SIZE":"LARGE","MEAN_MOTION":"15.06411095","TIME_SYSTEM":"UTC","APOAPSIS":"548.367","INCLINATION":"53.0528","NORAD_CAT_ID":"46121","EPOCH":"2022-02-01T18:47:53.657088","LAUNCH_DATE":"2020-08-18","TLE_LINE1":"1 46121U 20057E   22032.78325992  .00000726  00000-0  67632-4 0  9995"},{"NORAD_CAT_ID":"46122","EPOCH":"2022-02-01T17:25:36.828480","INCLINATION":"53.0540","LAUNCH_DATE":"2020-08-18","TLE_LINE1":"1 46122U 20057F   22032.72612070  .00000873  00000-0  77523-4 0  9999","BSTAR":"0.00007752300000","REV_AT_EPOCH":"8225","RCS_SIZE":"LARGE","MEAN_MOTION":"15.06399315","TIME_SYSTEM":"UTC","APOAPSIS":"548.428","ELEMENT_SET_NO":"999","GP_ID":"195121785","CENTER_NAME":"EARTH","RA_OF_ASC_NODE":"156.7414","OBJECT_ID":"2020-057F","DECAY_DATE":null,"TLE_LINE2":"2 46122  53.0540 156.7414 0001751  87.7099 272.4090 15.06399315 82259","FILE":"3289675","COUNTRY_CODE":"US","MEAN_MOTION_DDOT":"0.0000000000000","PERIOD":"95.592","ARG_OF_PERICENTER":"87.7099","MEAN_MOTION_DOT":"0.00000873","MEAN_ELEMENT_THEORY":"SGP4","OBJECT_TYPE":"PAYLOAD","ECCENTRICITY":"0.00017510","CLASSIFICATION_TYPE":"U","EPHEMERIS_TYPE":"0","PERIAPSIS":"546.003","SITE":"AFETR","REF_FRAME":"TEME","OBJECT_NAME":"STARLINK-1604","MEAN_ANOMALY":"272.4090","SEMIMAJOR_AXIS":"6925.351"},{"SITE":"AFETR","PERIAPSIS":"546.074","OBJECT_NAME":"STARLINK-1605","REF_FRAME":"TEME","SEMIMAJOR_AXIS":"6925.340","MEAN_ANOMALY":"287.1362","DECAY_DATE":null,"TLE_LINE2":"2 46123  53.0541 156.8166 0001633  72.9806 287.1362 15.06402796 82272","OBJECT_ID":"2020-057G","MEAN_MOTION_DDOT":"0.0000000000000","PERIOD":"95.592","MEAN_MOTION_DOT":"0.00000194","ARG_OF_PERICENTER":"72.9806","FILE":"3289675","COUNTRY_CODE":"US","MEAN_ELEMENT_THEORY":"SGP4","EPHEMERIS_TYPE":"0","CLASSIFICATION_TYPE":"U","OBJECT_TYPE":"PAYLOAD","ECCENTRICITY":"0.00016330","REV_AT_EPOCH":"8227","BSTAR":"0.00003191700000","APOAPSIS":"548.336","TIME_SYSTEM":"UTC","RCS_SIZE":"LARGE","MEAN_MOTION":"15.06402796","RA_OF_ASC_NODE":"156.8166","GP_ID":"195121528","CENTER_NAME":"EARTH","ELEMENT_SET_NO":"999","EPOCH":"2022-02-01T17:04:22.968480","NORAD_CAT_ID":"46123","INCLINATION":"53.0541","TLE_LINE1":"1 46123U 20057G   22032.71137695  .00000194  00000-0  31917-4 0  9997","LAUNCH_DATE":"2020-08-18"},{"OBJECT_ID":"2020-057H","DECAY_DATE":null,"TLE_LINE2":"2 46124  53.0543 156.7930 0001810  86.9639 273.1557 15.06400526 81009","FILE":"3289675","COUNTRY_CODE":"US","PERIOD":"95.592","MEAN_MOTION_DDOT":"0.0000000000000","MEAN_MOTION_DOT":"0.00001134","ARG_OF_PERICENTER":"86.9639","MEAN_ELEMENT_THEORY":"SGP4","OBJECT_TYPE":"PAYLOAD","ECCENTRICITY":"0.00018100","EPHEMERIS_TYPE":"0","CLASSIFICATION_TYPE":"U","PERIAPSIS":"545.958","SITE":"AFETR","REF_FRAME":"TEME","OBJECT_NAME":"STARLINK-1614","MEAN_ANOMALY":"273.1557","SEMIMAJOR_AXIS":"6925.347","NORAD_CAT_ID":"46124","EPOCH":"2022-02-01T17:14:59.796096","INCLINATION":"53.0543","LAUNCH_DATE":"2020-08-18","TLE_LINE1":"1 46124U 20057H   22032.71874764  .00001134  00000-0  95040-4 0  9995","BSTAR":"0.00009504000000","REV_AT_EPOCH":"8100","MEAN_MOTION":"15.06400526","RCS_SIZE":"LARGE","APOAPSIS":"548.465","TIME_SYSTEM":"UTC","ELEMENT_SET_NO":"999","CENTER_NAME":"EARTH","GP_ID":"195120784","RA_OF_ASC_NODE":"156.7930"},{"MEAN_MOTION":"15.06403392","RCS_SIZE":"LARGE","TIME_SYSTEM":"UTC","APOAPSIS":"548.489","ELEMENT_SET_NO":"999","RA_OF_ASC_NODE":"196.2560","GP_ID":"195121034","CENTER_NAME":"EARTH","BSTAR":"0.00018041000000","REV_AT_EPOCH":"8171","LAUNCH_DATE":"2020-08-18","TLE_LINE1":"1 46125U 20057J   22032.83301332  .00002407  00000-0  18041-3 0  9994","NORAD_CAT_ID":"46125","EPOCH":"2022-02-01T19:59:32.350848","INCLINATION":"53.0548","REF_FRAME":"TEME","OBJECT_NAME":"STARLINK-1618","MEAN_ANOMALY":"277.8912","SEMIMAJOR_AXIS":"6925.338","PERIAPSIS":"545.917","SITE":"AFETR","MEAN_ELEMENT_THEORY":"SGP4","ECCENTRICITY":"0.00018570","OBJECT_TYPE":"PAYLOAD","EPHEMERIS_TYPE":"0","CLASSIFICATION_TYPE":"U","OBJECT_ID":"2020-057J","DECAY_DATE":null,"TLE_LINE2":"2 46125  53.0548 196.2560 0001857  82.2288 277.8912 15.06403392 81711","FILE":"3289675","COUNTRY_CODE":"US","MEAN_MOTION_DDOT":"0.0000000000000","PERIOD":"95.592","ARG_OF_PERICENTER":"82.2288","MEAN_MOTION_DOT":"0.00002407"},{"REV_AT_EPOCH":"8046","BSTAR":"0.00004548200000","APOAPSIS":"549.025","TIME_SYSTEM":"UTC","MEAN_MOTION":"15.06409262","RCS_SIZE":"LARGE","RA_OF_ASC_NODE":"196.0717","GP_ID":"195121286","CENTER_NAME":"EARTH","ELEMENT_SET_NO":"999","EPOCH":"2022-02-01T20:57:55.703232","NORAD_CAT_ID":"46126","INCLINATION":"53.0625","TLE_LINE1":"1 46126U 20057K   22032.87356138  .00000396  00000-0  45482-4 0  9998","LAUNCH_DATE":"2020-08-18","SITE":"AFETR","PERIAPSIS":"545.345","OBJECT_NAME":"STARLINK-1619","REF_FRAME":"TEME","SEMIMAJOR_AXIS":"6925.320","MEAN_ANOMALY":"271.5905","DECAY_DATE":null,"TLE_LINE2":"2 46126  53.0625 196.0717 0002657  88.5389 271.5905 15.06409262 80466","OBJECT_ID":"2020-057K","ARG_OF_PERICENTER":"88.5389","PERIOD":"95.592","MEAN_MOTION_DDOT":"0.0000000000000","MEAN_MOTION_DOT":"0.00000396","FILE":"3289675","COUNTRY_CODE":"US","MEAN_ELEMENT_THEORY":"SGP4","CLASSIFICATION_TYPE":"U","EPHEMERIS_TYPE":"0","OBJECT_TYPE":"PAYLOAD","ECCENTRICITY":"0.00026570"},{"BSTAR":"0.00010906000000","REV_AT_EPOCH":"8073","ELEMENT_SET_NO":"999","GP_ID":"195122028","RA_OF_ASC_NODE":"176.1285","CENTER_NAME":"EARTH","MEAN_MOTION":"15.06400853","RCS_SIZE":"LARGE","APOAPSIS":"548.469","TIME_SYSTEM":"UTC","INCLINATION":"53.0537","NORAD_CAT_ID":"46127","EPOCH":"2022-02-01T20:44:39.179040","LAUNCH_DATE":"2020-08-18","TLE_LINE1":"1 46127U 20057L   22032.86434235  .00001343  00000-0  10906-3 0  9998","PERIAPSIS":"545.953","SITE":"AFETR","MEAN_ANOMALY":"276.0072","SEMIMAJOR_AXIS":"6925.346","REF_FRAME":"TEME","OBJECT_NAME":"STARLINK-1621","COUNTRY_CODE":"US","FILE":"3289675","PERIOD":"95.592","MEAN_MOTION_DDOT":"0.0000000000000","ARG_OF_PERICENTER":"84.1124","MEAN_MOTION_DOT":"0.00001343","OBJECT_ID":"2020-057L","TLE_LINE2":"2 46127  53.0537 176.1285 0001817  84.1124 276.0072 15.06400853 80736","DECAY_DATE":null,"OBJECT_TYPE":"PAYLOAD","ECCENTRICITY":"0.00018170","CLASSIFICATION_TYPE":"U","EPHEMERIS_TYPE":"0","MEAN_ELEMENT_THEORY":"SGP4"}];
